NORAD_CAT_ID,OBJECT_NAME,OBJECT_TYPE,EPOCH,MEAN_MOTION,ECCENTRICITY,INCLINATION,RA_OF_ASC_NODE,ARG_OF_PERICENTER,MEAN_ANOMALY,BSTAR,MEAN_MOTION_DOT,MEAN_MOTION_DDOT,TLE_LINE0,TLE_LINE1,TLE_LINE2,SEMIMAJOR_AXIS,PERIOD,APOGEE,PERIGEE,DECAYED
51787.0,STARLINK-3619,PAYLOAD,2022-05-09 22:00:00,15.08825942,0.0002088,53.2139,152.9464,48.2038,117.2664,0.0026114,0.00041502,0.0,0 STARLINK-3619,1 51787U 22017V   22129.91667824  .00041502  00000-0  26114-2 0  9997,2 51787  53.2139 152.9464 0002088  48.2038 117.2664 15.08825942  3629,6917.9230000000025,95.438,541.2330000000002,538.344,0.0
51787.0,STARLINK-3619,PAYLOAD,2022-05-10 00:00:00,15.088327800000002,0.0002097,53.214,152.5721,49.8393,208.5276,0.0023785,0.00037762,0.0,0 STARLINK-3619,1 51787U 22017V   22130.00001157  .00037762  00000-0  23785-2 0  9994,2 51787  53.2140 152.5721 0002097  49.8393 208.5276 15.08832780 12614,6917.901999999999,95.438,541.2180000000002,538.317,0.0
51787.0,STARLINK-3619,PAYLOAD,2022-05-10 14:00:01,15.08846422,0.0002289,53.2136,149.9551,44.6033,144.0652,0.00064824,0.00010046,0.0,0 STARLINK-3619,1 51787U 22017V   22130.58334491  .00010046  00000-0  64824-3 0  9993,2 51787  53.2136 149.9551 0002289  44.6033 144.0652 15.08846422 12707,6917.861,95.437,541.309,538.1419999999998,0.0
51787.0,STARLINK-3619,PAYLOAD,2022-05-10 18:00:00,15.08864706,0.0002177,53.2137,149.2058,47.3104,327.1607,-0.0019626,-0.00031409,0.0,0 STARLINK-3619,1 51787U 22017V   22130.75001157 -.00031409  00000-0 -19626-2 0  9999,2 51787  53.2137 149.2058 0002177  47.3104 327.1607 15.08864706  3606,6917.805,95.436,541.1759999999998,538.164,0.0
51787.0,STARLINK-3619,PAYLOAD,2022-05-11 22:00:00,15.08808065,0.0002044,53.2129,143.9676,49.7184,185.3374,0.0025078,0.00039815,0.0,0 STARLINK-3619,1 51787U 22017V   22131.91667824  .00039815  00000-0  25078-2 0  9992,2 51787  53.2129 143.9676 0002044  49.7184 185.3374 15.08808065 12905,6917.978,95.44,541.257,538.429,0.0
51787.0,STARLINK-3619,PAYLOAD,2022-05-12 14:00:01,15.08841843,0.0002232,53.2124,140.9762,45.9434,212.2738,-0.00067249,-0.00010976,0.0,0 STARLINK-3619,1 51787U 22017V   22132.58334491 -.00010976  00000-0 -67249-3 0  9993,2 51787  53.2124 140.9762 0002232  45.9434 212.2738 15.08841843  1305,6917.875,95.437,541.284,538.196,0.0
51787.0,STARLINK-3619,PAYLOAD,2022-05-12 20:00:01,15.08821613,0.0002094,53.2124,139.8524,49.9385,126.9829,0.0019153,0.00030311,0.0,0 STARLINK-3619,1 51787U 22017V   22132.83334491  .00030311  00000-0  19153-2 0  9994,2 51787  53.2124 139.8524 0002094  49.9385 126.9829 15.08821613 13042,6917.937,95.439,541.25,538.3530000000002,0.0
51787.0,STARLINK-3619,PAYLOAD,2022-05-12 22:00:00,15.08818243,0.0002108,53.2123,139.47799999999998,51.5468,218.2729,0.002754,0.00043789,0.0,0 STARLINK-3619,1 51787U 22017V   22132.91667824  .00043789  00000-0  27540-2 0  9994,2 51787  53.2123 139.4780 0002108  51.5468 218.2729 15.08818243  1303,6917.946999999999,95.439,541.27,538.354,0.0
51787.0,STARLINK-3619,PAYLOAD,2022-05-13 14:00:01,15.0885456,0.0002294,53.212,136.4864,47.0775,245.921,-0.0011933,-0.00019238,0.0,0 STARLINK-3619,1 51787U 22017V   22133.58334491 -.00019238  00000-0 -11933-2 0  9992,2 51787  53.2120 136.4864 0002294  47.0775 245.9210 15.08854560 13157,6917.8359999999975,95.437,541.288,538.114,0.0
51787.0,STARLINK-3619,PAYLOAD,2022-05-13 22:00:00,15.08825497,0.0002184,53.2122,134.9879,52.7304,251.8796,0.0027584,0.00043869,0.0,0 STARLINK-3619,1 51787U 22017V   22133.91667824  .00043869  00000-0  27584-2 0  9992,2 51787  53.2122 134.9879 0002184  52.7304 251.8796 15.08825497  1303,6917.925,95.438,541.3009999999998,538.279,0.0
51787.0,STARLINK-3619,PAYLOAD,2022-05-14 06:00:00,15.08867609,0.0002324,53.2121,133.4932,49.1768,267.0339,-0.0038823,-0.00061597,0.0,0 STARLINK-3619,1 51787U 22017V   22134.25001157 -.00061597  00000-0 -38823-2 0  9999,2 51787  53.2121 133.4932 0002324  49.1768 267.0339 15.08867609 13256,6917.795999999999,95.436,541.269,538.053,0.0
51787.0,STARLINK-3619,PAYLOAD,2022-05-14 14:00:01,15.08843827,0.0002292,53.212,131.9964,46.333,281.4783,-0.0013746,-0.00022102,0.0,0 STARLINK-3619,1 51787U 22017V   22134.58334491 -.00022102  00000-0 -13746-2 0  9991,2 51787  53.2120 131.9964 0002292  46.3330 281.4783 15.08843827  1303,6917.869000000002,95.437,541.319,538.148,0.0
51787.0,STARLINK-3619,PAYLOAD,2022-05-14 22:00:00,15.0881682,0.0002203,53.2123,130.4983,52.1505,287.2584,0.0029437,0.00046844,0.0,0 STARLINK-3619,1 51787U 22017V   22134.91667824  .00046844  00000-0  29437-2 0  9998,2 51787  53.2123 130.4983 0002203  52.1505 287.2584 15.08816820 13356,6917.951,95.439,541.34,538.2919999999998,0.0
51787.0,STARLINK-3619,PAYLOAD,2022-05-15 14:00:01,15.08871707,0.0002329,53.2125,127.5064,46.9801,315.6708,-0.0044781,-0.00070921,0.0,0 STARLINK-3619,1 51787U 22017V   22135.58335648 -.00070921  00000-0 -44781-2 0  9992,2 51787  53.2125 127.5064 0002329  46.9801 315.6708 15.08871707 13454,6917.783,95.436,541.26,538.0369999999998,0.0
51787.0,STARLINK-3619,PAYLOAD,2022-05-15 22:00:00,15.08811086,0.0002187,53.2129,126.0085,51.982,322.2178,0.0028296,0.00044998,0.0,0 STARLINK-3619,1 51787U 22017V   22135.91667824  .00044998  00000-0  28296-2 0  9999,2 51787  53.2129 126.0085 0002187  51.9820 322.2178 15.08811086  1304,6917.969,95.439,541.347,538.321,0.0
51787.0,STARLINK-3619,PAYLOAD,2022-05-16 06:00:02,15.08837372,0.0002375,53.2132,124.5137,48.8421,336.9991,-0.00063042,-0.00010307,0.0,0 STARLINK-3619,1 51787U 22017V   22136.25002315 -.00010307  00000-0 -63042-3 0  9993,2 51787  53.2132 124.5137 0002375  48.8421 336.9991 15.08837372 13551,6917.888000000001,95.438,541.396,538.11,0.0
51787.0,STARLINK-3619,PAYLOAD,2022-05-16 14:00:01,15.08853222,0.0002337,53.2132,123.0167,48.2653,349.0939,-0.001751,-0.00028059,0.0,0 STARLINK-3619,1 51787U 22017V   22136.58334491 -.00028059  00000-0 -17510-2 0  9993,2 51787  53.2132 123.0167 0002337  48.2653 349.0939 15.08853222  1306,6917.84,95.437,541.322,538.0880000000002,0.0
51787.0,STARLINK-3619,PAYLOAD,2022-05-16 22:00:00,15.08842287,0.0002198,53.2136,121.519,53.2131,355.7506,0.00059153,9.139e-05,0.0,0 STARLINK-3619,1 51787U 22017V   22136.91667824  .00009139  00000-0  59153-3 0  9995,2 51787  53.2136 121.5190 0002198  53.2131 355.7506 15.08842287 13655,6917.873000000001,95.437,541.259,538.2180000000002,0.0
51787.0,STARLINK-3619,PAYLOAD,2022-05-17 12:00:00,15.08835097,0.0002279,53.2136,118.9019,46.7618,292.4935,-2.816e-05,-7.36e-06,0.0,0 STARLINK-3619,1 51787U 22017V   22137.50001157 -.00000736  00000-0 -28160-4 0  9993,2 51787  53.2136 118.9019 0002279  46.7618 292.4935 15.08835097 13746,6917.895,95.438,541.337,538.184,0.0
51787.0,STARLINK-3619,PAYLOAD,2022-05-17 14:00:01,15.08847377,0.0002246,53.2138,118.5272,48.57899999999999,23.6329,-0.0016487,-0.00026438,0.0,0 STARLINK-3619,1 51787U 22017V   22137.58335648 -.00026438  00000-0 -16487-2 0  9990,2 51787  53.2138 118.5272 0002246  48.5790  23.6329 15.08847377  1304,6917.858,95.437,541.2769999999998,538.169,0.0
51787.0,STARLINK-3619,PAYLOAD,2022-05-17 22:00:01,15.08830075,0.0002133,53.2142,117.0298,54.3096,29.4962,0.0021537,0.00034146,0.0,0 STARLINK-3619,1 51787U 22017V   22137.91668981  .00034146  00000-0  21537-2 0  9991,2 51787  53.2142 117.0298 0002133  54.3096  29.4962 15.08830075  1304,6917.911,95.438,541.251,538.3,0.0
51787.0,STARLINK-3619,PAYLOAD,2022-05-18 12:00:00,15.08874868,0.0002209,53.2139,114.4127,48.0264,326.019,-0.0034976,-0.00055578,0.0,0 STARLINK-3619,1 51787U 22017V   22138.50001157 -.00055578  00000-0 -34976-2 0  9998,2 51787  53.2139 114.4127 0002209  48.0264 326.0190 15.08874868 13897,6917.774,95.435,541.1669999999998,538.111,0.0
51787.0,STARLINK-3619,PAYLOAD,2022-05-18 14:00:01,15.08871262,0.0002149,53.2141,114.0381,50.1104,56.8404,-0.0039005,-0.00061887,0.0,0 STARLINK-3619,1 51787U 22017V   22138.58334491 -.00061887  00000-0 -39005-2 0  9994,2 51787  53.2141 114.0381 0002149  50.1104  56.8404 15.08871262  1302,6917.785,95.436,541.136,538.163,0.0
51787.0,STARLINK-3619,PAYLOAD,2022-05-18 22:00:00,15.08844043,0.0001998,53.2144,112.5408,54.4195,64.1324,-0.0010674,-0.00017238,0.0,0 STARLINK-3619,1 51787U 22017V   22138.91667824 -.00017238  00000-0 -10674-2 0  9992,2 51787  53.2144 112.5408 0001998  54.4195  64.1324 15.08844043  1306,6917.868,95.437,541.115,538.351,0.0
51787.0,STARLINK-3619,PAYLOAD,2022-05-19 14:00:01,15.08838733,0.0002006,53.214,109.5491,49.8776,91.8586,-0.0013237,-0.00021293,0.0,0 STARLINK-3619,1 51787U 22017V   22139.58335648 -.00021293  00000-0 -13237-2 0  9996,2 51787  53.2140 109.5491 0002006  49.8776  91.8586 15.08838733  1300,6917.884,95.438,541.137,538.362,0.0
51787.0,STARLINK-3619,PAYLOAD,2022-05-19 22:00:00,15.08834705,0.0001947,53.2143,108.0521,55.8015,97.4549,0.001483,0.0002339,0.0,0 STARLINK-3619,1 51787U 22017V   22139.91667824  .00023390  00000-0  14830-2 0  9995,2 51787  53.2143 108.0521 0001947  55.8015  97.4549 15.08834705 14105,6917.897,95.438,541.1080000000002,538.415,0.0
51787.0,STARLINK-3619,PAYLOAD,2022-05-20 14:00:01,15.08881266,0.0001969,53.2138,105.0601,51.4276,125.0271,-0.0042142,-0.00066812,0.0,0 STARLINK-3619,1 51787U 22017V   22140.58334491 -.00066812  00000-0 -42142-2 0  9996,2 51787  53.2138 105.0601 0001969  51.4276 125.0271 15.08881266  1302,6917.754,95.435,540.981,538.257,0.0
51787.0,STARLINK-3619,PAYLOAD,2022-05-20 22:00:00,15.08846788,0.0001888,53.2142,103.5631,55.5346,132.5362,0.00014405,2.006e-05,0.0,0 STARLINK-3619,1 51787U 22017V   22140.91667824  .00002006  00000-0  14405-3 0  9997,2 51787  53.2142 103.5631 0001888  55.5346 132.5362 15.08846788 14269,6917.86,95.437,541.031,538.419,0.0
51787.0,STARLINK-3619,PAYLOAD,2022-05-21 06:00:00,15.08821865,0.0001989,53.2139,102.0685,47.8646,151.8194,0.0010206,0.00015984,0.0,0 STARLINK-3619,1 51787U 22017V   22141.25001157  .00015984  00000-0  10206-2 0  9999,2 51787  53.2139 102.0685 0001989  47.8646 151.8194 15.08821865  1304,6917.936,95.439,541.177,538.425,0.0
